{
  "type": "FeatureCollection",
  "features": [
    {
      "type": "Feature",
      "properties": {
        "norad_id": 29887,
        "name": "FENGYUN 1C DEB",
        "group": "fengyun-1c-debris",
        "lat": 74.2897687854455,
        "lon": -76.91356774735779,
        "alt_km": 833.2364822003728,
        "timestamp": "2025-12-14T09:36:23.308661+00:00",
        "meta_object_name": "FENGYUN 1C DEB",
        "meta_object_id": "1999-025GH",
        "meta_epoch": "2025-12-13T17:06:06.613920",
        "meta_mean_motion": 14.33715798,
        "meta_eccentricity": 0.02869169,
        "meta_inclination": 98.718,
        "meta_ra_of_asc_node": 69.3328,
        "meta_arg_of_pericenter": 356.2715,
        "meta_mean_anomaly": 156.268,
        "meta_ephemeris_type": 0,
        "meta_classification_type": "U",
        "meta_norad_cat_id": 29887,
        "meta_element_set_no": 999,
        "meta_rev_at_epoch": 97988,
        "meta_bstar": 0.00071221237,
        "meta_mean_motion_dot": 3.083e-05,
        "meta_mean_motion_ddot": 0,
        "tle_line1": "1 29887U 99025GH  25347.71257655  .00003083  00000+0  71221-3 0  9997",
        "tle_line2": "2 29887  98.7180  69.3328 0286916 356.2715 156.2680 14.33715798979888"
      },
      "geometry": {
        "type": "Point",
        "coordinates": [
          -76.91356774735779,
          74.2897687854455
        ]
      }
    },
    {
      "type": "Feature",
      "properties": {
        "norad_id": 29888,
        "name": "FENGYUN 1C DEB",
        "group": "fengyun-1c-debris",
        "lat": 76.93994331234978,
        "lon": 45.44319668645761,
        "alt_km": 774.3333981745864,
        "timestamp": "2025-12-14T09:36:23.308671+00:00",
        "meta_object_name": "FENGYUN 1C DEB",
        "meta_object_id": "1999-025GJ",
        "meta_epoch": "2025-12-13T11:10:28.275456",
        "meta_mean_motion": 14.1985944,
        "meta_eccentricity": 0.02750061,
        "meta_inclination": 99.1918,
        "meta_ra_of_asc_node": 180.2035,
        "meta_arg_of_pericenter": 23.2981,
        "meta_mean_anomaly": 338.0385,
        "meta_ephemeris_type": 0,
        "meta_classification_type": "U",
        "meta_norad_cat_id": 29888,
        "meta_element_set_no": 999,
        "meta_rev_at_epoch": 97514,
        "meta_bstar": 0.00053229792,
        "meta_mean_motion_dot": 1.596e-05,
        "meta_mean_motion_ddot": 0,
        "tle_line1": "1 29888U 99025GJ  25347.46560504  .00001596  00000+0  53230-3 0  9997",
        "tle_line2": "2 29888  99.1918 180.2035 0275006  23.2981 338.0385 14.19859440975149"
      },
      "geometry": {
        "type": "Point",
        "coordinates": [
          45.44319668645761,
          76.93994331234978
        ]
      }
    },
    {
      "type": "Feature",
      "properties": {
        "norad_id": 29889,
        "name": "FENGYUN 1C DEB",
        "group": "fengyun-1c-debris",
        "lat": 36.63860591902049,
        "lon": -66.97210196776938,
        "alt_km": 878.0505502235501,
        "timestamp": "2025-12-14T09:36:23.308681+00:00",
        "meta_object_name": "FENGYUN 1C DEB",
        "meta_object_id": "1999-025GK",
        "meta_epoch": "2025-12-13T07:44:32.487072",
        "meta_mean_motion": 14.13512804,
        "meta_eccentricity": 0.01544469,
        "meta_inclination": 99.4768,
        "meta_ra_of_asc_node": 104.7506,
        "meta_arg_of_pericenter": 37.4536,
        "meta_mean_anomaly": 22.6486,
        "meta_ephemeris_type": 0,
        "meta_classification_type": "U",
        "meta_norad_cat_id": 29889,
        "meta_element_set_no": 999,
        "meta_rev_at_epoch": 97327,
        "meta_bstar": 0.00041273632,
        "meta_mean_motion_dot": 8.22e-06,
        "meta_mean_motion_ddot": 0,
        "tle_line1": "1 29889U 99025GK  25347.32259823  .00000822  00000+0  41274-3 0  9998",
        "tle_line2": "2 29889  99.4768 104.7506 0154446  37.4536  22.6486 14.13512804973271"
      },
      "geometry": {
        "type": "Point",
        "coordinates": [
          -66.97210196776938,
          36.63860591902049
        ]
      }
    },
    {
      "type": "Feature",
      "properties": {
        "norad_id": 29890,
        "name": "FENGYUN 1C DEB",
        "group": "fengyun-1c-debris",
        "lat": 59.84969217896444,
        "lon": 93.35108012286622,
        "alt_km": 798.6685687423615,
        "timestamp": "2025-12-14T09:36:23.308692+00:00",
        "meta_object_name": "FENGYUN 1C DEB",
        "meta_object_id": "1999-025GL",
        "meta_epoch": "2025-12-13T06:19:15.867840",
        "meta_mean_motion": 14.23041545,
        "meta_eccentricity": 0.00147702,
        "meta_inclination": 99.4674,
        "meta_ra_of_asc_node": 108.8246,
        "meta_arg_of_pericenter": 72.1601,
        "meta_mean_anomaly": 288.1185,
        "meta_ephemeris_type": 0,
        "meta_classification_type": "U",
        "meta_norad_cat_id": 29890,
        "meta_element_set_no": 999,
        "meta_rev_at_epoch": 97458,
        "meta_bstar": 0.0013624979,
        "meta_mean_motion_dot": 3.025e-05,
        "meta_mean_motion_ddot": 0,
        "tle_line1": "1 29890U 99025GL  25347.26337810  .00003025  00000+0  13625-2 0  9992",
        "tle_line2": "2 29890  99.4674 108.8246 0014770  72.1601 288.1185 14.23041545974589"
      },
      "geometry": {
        "type": "Point",
        "coordinates": [
          93.35108012286622,
          59.84969217896444
        ]
      }
    },
    {
      "type": "Feature",
      "properties": {
        "norad_id": 29891,
        "name": "FENGYUN 1C DEB",
        "group": "fengyun-1c-debris",
        "lat": -27.89996747352734,
        "lon": 165.7854958159806,
        "alt_km": 869.3057904958332,
        "timestamp": "2025-12-14T09:36:23.308703+00:00",
        "meta_object_name": "FENGYUN 1C DEB",
        "meta_object_id": "1999-025GM",
        "meta_epoch": "2025-12-13T11:03:57.045024",
        "meta_mean_motion": 13.99998562,
        "meta_eccentricity": 0.00612393,
        "meta_inclination": 98.7264,
        "meta_ra_of_asc_node": 349.5541,
        "meta_arg_of_pericenter": 258.3057,
        "meta_mean_anomaly": 259.445,
        "meta_ephemeris_type": 0,
        "meta_classification_type": "U",
        "meta_norad_cat_id": 29891,
        "meta_element_set_no": 999,
        "meta_rev_at_epoch": 96498,
        "meta_bstar": 0.0006053825,
        "meta_mean_motion_dot": 8.63e-06,
        "meta_mean_motion_ddot": 0,
        "tle_line1": "1 29891U 99025GM  25347.46107691  .00000863  00000+0  60538-3 0  9990",
        "tle_line2": "2 29891  98.7264 349.5541 0061239 258.3057 259.4450 13.99998562964985"
      },
      "geometry": {
        "type": "Point",
        "coordinates": [
          165.7854958159806,
          -27.89996747352734
        ]
      }
    },
    {
      "type": "Feature",
      "properties": {
        "norad_id": 29892,
        "name": "FENGYUN 1C DEB",
        "group": "fengyun-1c-debris",
        "lat": 80.61281989913697,
        "lon": 34.0702148690739,
        "alt_km": 904.8354589633409,
        "timestamp": "2025-12-14T09:36:23.308713+00:00",
        "meta_object_name": "FENGYUN 1C DEB",
        "meta_object_id": "1999-025GN",
        "meta_epoch": "2025-12-13T16:28:34.109760",
        "meta_mean_motion": 14.32209691,
        "meta_eccentricity": 0.01913787,
        "meta_inclination": 99.1807,
        "meta_ra_of_asc_node": 135.2867,
        "meta_arg_of_pericenter": 294.589,
        "meta_mean_anomaly": 78.4768,
        "meta_ephemeris_type": 0,
        "meta_classification_type": "U",
        "meta_norad_cat_id": 29892,
        "meta_element_set_no": 999,
        "meta_rev_at_epoch": 96663,
        "meta_bstar": 0.0037980979,
        "meta_mean_motion_dot": 0.00012497,
        "meta_mean_motion_ddot": 0,
        "tle_line1": "1 29892U 99025GN  25347.68650590  .00012497  00000+0  37981-2 0  9997",
        "tle_line2": "2 29892  99.1807 135.2867 0191378 294.5890  78.4768 14.32209691966631"
      },
      "geometry": {
        "type": "Point",
        "coordinates": [
          34.0702148690739,
          80.61281989913697
        ]
      }
    },
    {
      "type": "Feature",
      "properties": {
        "norad_id": 29893,
        "name": "FENGYUN 1C DEB",
        "group": "fengyun-1c-debris",
        "lat": -77.91652634091592,
        "lon": -140.3628824801751,
        "alt_km": 1019.9932622927017,
        "timestamp": "2025-12-14T09:36:23.308723+00:00",
        "meta_object_name": "FENGYUN 1C DEB",
        "meta_object_id": "1999-025GP",
        "meta_epoch": "2025-12-13T13:17:26.894400",
        "meta_mean_motion": 13.7946186,
        "meta_eccentricity": 0.01736819,
        "meta_inclination": 98.5535,
        "meta_ra_of_asc_node": 83.5401,
        "meta_arg_of_pericenter": 151.2268,
        "meta_mean_anomaly": 226.9301,
        "meta_ephemeris_type": 0,
        "meta_classification_type": "U",
        "meta_norad_cat_id": 29893,
        "meta_element_set_no": 999,
        "meta_rev_at_epoch": 95151,
        "meta_bstar": 0.00029082634,
        "meta_mean_motion_dot": 2.98e-06,
        "meta_mean_motion_ddot": 0,
        "tle_line1": "1 29893U 99025GP  25347.55378350  .00000298  00000+0  29083-3 0  9996",
        "tle_line2": "2 29893  98.5535  83.5401 0173681 151.2268 226.9301 13.79461860951519"
      },
      "geometry": {
        "type": "Point",
        "coordinates": [
          -140.3628824801751,
          -77.91652634091592
        ]
      }
    }
  ]
}